GLOBALSTAR M001 [-]     
1 25162U 98008A   24004.49004562 -.00000130  00000+0 -25266-3 0  9990
2 25162  52.0044  74.8998 0001869 196.1180 266.8091 12.38174725178095
GLOBALSTAR M004 [-]     
1 25163U 98008B   24004.80104382 -.00000058  00000+0  25572-3 0  9995
2 25163  51.9971 229.1251 0002667 173.7184 266.0144 12.63347412194779
GLOBALSTAR M002 [-]     
1 25164U 98008C   24004.65170332 -.00000074  00000+0  44261-4 0  9992
2 25164  52.0002 127.9104 0000998 200.0712 160.0068 11.61497571122537
GLOBALSTAR M003 [-]     
1 25165U 98008D   24004.85049535  .00000042  00000+0  13977-2 0  9997
2 25165  51.9761 194.6413 0007144 312.8901 152.4720 12.11965712169033
GLOBALSTAR M014 [-]     
1 25306U 98023A   24004.45103734 -.00000088  00000+0 -20087-3 0  9992
2 25306  51.9854  62.7743 0001282 121.6996 338.2184 11.65463171129406
GLOBALSTAR M006 [-]     
1 25307U 98023B   24004.66342572 -.00000094  00000+0 -37614-3 0  9992
2 25307  51.9944  94.9199 0003579 224.2696 284.9839 11.58157375155475
GLOBALSTAR M015 [-]     
1 25308U 98023C   24004.62376767 -.00000054  00000+0  45222-3 0  9991
2 25308  51.9789 169.2230 0011903 206.0748 233.9552 11.48857431133584
GLOBALSTAR M008 [-]     
1 25309U 98023D   24004.18630654 -.00000064  00000+0  25193-3 0  9997
2 25309  51.9982 294.6156 0002689 123.2496  23.7173 12.36034431172303
